[{"OBJECT_NAME":"GAOFEN-1 02","OBJECT_ID":"2018-031A","EPOCH":"2026-03-13T16:10:22.919232","MEAN_MOTION":14.76449151,"ECCENTRICITY":0.00021951,"INCLINATION":98.0637,"RA_OF_ASC_NODE":135.4203,"ARG_OF_PERICENTER":336.3176,"MEAN_ANOMALY":23.7932,"EPHEMERIS_TYPE":0,"CLASSIFICATION_TYPE":"U","NORAD_CAT_ID":43259,"ELEMENT_SET_NO":999,"REV_AT_EPOCH":42860,"BSTAR":9.0900211e-5,"MEAN_MOTION_DOT":5.81e-6,"MEAN_MOTION_DDOT":0},{"OBJECT_NAME":"GAOFEN-1 03","OBJECT_ID":"2018-031B","EPOCH":"2026-03-15T06:41:02.188320","MEAN_MOTION":14.76430534,"ECCENTRICITY":0.00031441,"INCLINATION":98.0623,"RA_OF_ASC_NODE":136.8908,"ARG_OF_PERICENTER":36.9054,"MEAN_ANOMALY":323.2372,"EPHEMERIS_TYPE":0,"CLASSIFICATION_TYPE":"U","NORAD_CAT_ID":43260,"ELEMENT_SET_NO":999,"REV_AT_EPOCH":42883,"BSTAR":0.00013342323,"MEAN_MOTION_DOT":8.76e-6,"MEAN_MOTION_DDOT":0},{"OBJECT_NAME":"GAOFEN-1 04","OBJECT_ID":"2018-031D","EPOCH":"2026-03-15T07:43:42.038976","MEAN_MOTION":14.76448475,"ECCENTRICITY":0.00018119,"INCLINATION":98.0639,"RA_OF_ASC_NODE":137.114,"ARG_OF_PERICENTER":74.8318,"MEAN_ANOMALY":285.3092,"EPHEMERIS_TYPE":0,"CLASSIFICATION_TYPE":"U","NORAD_CAT_ID":43262,"ELEMENT_SET_NO":999,"REV_AT_EPOCH":42883,"BSTAR":0.00013676491,"MEAN_MOTION_DOT":9.0e-6,"MEAN_MOTION_DDOT":0},{"OBJECT_NAME":"SENTINEL-3B","OBJECT_ID":"2018-039A","EPOCH":"2026-03-15T05:10:27.821856","MEAN_MOTION":14.26738449,"ECCENTRICITY":0.0001165,"INCLINATION":98.6217,"RA_OF_ASC_NODE":143.0687,"ARG_OF_PERICENTER":125.532,"MEAN_ANOMALY":234.5969,"EPHEMERIS_TYPE":0,"CLASSIFICATION_TYPE":"U","NORAD_CAT_ID":43437,"ELEMENT_SET_NO":999,"REV_AT_EPOCH":41072,"BSTAR":6.6102714e-5,"MEAN_MOTION_DOT":1.16e-6,"MEAN_MOTION_DDOT":0},{"OBJECT_NAME":"GAOFEN-5 01","OBJECT_ID":"2018-043A","EPOCH":"2026-03-15T03:20:03.450048","MEAN_MOTION":14.60530257,"ECCENTRICITY":0.00023945,"INCLINATION":98.4474,"RA_OF_ASC_NODE":43.8047,"ARG_OF_PERICENTER":42.0331,"MEAN_ANOMALY":318.1052,"EPHEMERIS_TYPE":0,"CLASSIFICATION_TYPE":"U","NORAD_CAT_ID":43461,"ELEMENT_SET_NO":999,"REV_AT_EPOCH":41796,"BSTAR":0.00011785021,"MEAN_MOTION_DOT":5.23e-6,"MEAN_MOTION_DDOT":0},{"OBJECT_NAME":"GAOFEN-6","OBJECT_ID":"2018-048A","EPOCH":"2026-03-15T06:50:24.458784","MEAN_MOTION":14.7660864,"ECCENTRICITY":0.00134832,"INCLINATION":97.7865,"RA_OF_ASC_NODE":140.3681,"ARG_OF_PERICENTER":118.1388,"MEAN_ANOMALY":242.1187,"EPHEMERIS_TYPE":0,"CLASSIFICATION_TYPE":"U","NORAD_CAT_ID":43484,"ELEMENT_SET_NO":999,"REV_AT_EPOCH":41953,"BSTAR":0.00019088332,"MEAN_MOTION_DOT":1.286e-5,"MEAN_MOTION_DDOT":0},{"OBJECT_NAME":"GAOFEN-11 01","OBJECT_ID":"2018-063A","EPOCH":"2026-03-15T06:47:28.232160","MEAN_MOTION":15.5247283,"ECCENTRICITY":0.00030766,"INCLINATION":97.1401,"RA_OF_ASC_NODE":141.5719,"ARG_OF_PERICENTER":343.6865,"MEAN_ANOMALY":16.4289,"EPHEMERIS_TYPE":0,"CLASSIFICATION_TYPE":"U","NORAD_CAT_ID":43585,"ELEMENT_SET_NO":999,"REV_AT_EPOCH":42576,"BSTAR":0.00042186033,"MEAN_MOTION_DOT":0.00025766,"MEAN_MOTION_DDOT":0},{"OBJECT_NAME":"ICESAT-2","OBJECT_ID":"2018-070A","EPOCH":"2026-03-15T07:45:54.892800","MEAN_MOTION":15.28253254,"ECCENTRICITY":0.00040313,"INCLINATION":91.999,"RA_OF_ASC_NODE":265.6847,"ARG_OF_PERICENTER":109.8559,"MEAN_ANOMALY":250.3125,"EPHEMERIS_TYPE":0,"CLASSIFICATION_TYPE":"U","NORAD_CAT_ID":43613,"ELEMENT_SET_NO":999,"REV_AT_EPOCH":41812,"BSTAR":0.00012839888,"MEAN_MOTION_DOT":3.536e-5,"MEAN_MOTION_DDOT":0},{"OBJECT_NAME":"HYSIS","OBJECT_ID":"2018-096A","EPOCH":"2026-03-15T06:50:35.467008","MEAN_MOTION":14.78675358,"ECCENTRICITY":0.00018447,"INCLINATION":97.9934,"RA_OF_ASC_NODE":141.7317,"ARG_OF_PERICENTER":95.3017,"MEAN_ANOMALY":264.8405,"EPHEMERIS_TYPE":0,"CLASSIFICATION_TYPE":"U","NORAD_CAT_ID":43719,"ELEMENT_SET_NO":999,"REV_AT_EPOCH":39354,"BSTAR":0.00023842891,"MEAN_MOTION_DOT":1.696e-5,"MEAN_MOTION_DDOT":0},{"OBJECT_NAME":"KAZSTSAT","OBJECT_ID":"2018-099AB","EPOCH":"2026-03-15T02:10:10.907328","MEAN_MOTION":14.99637276,"ECCENTRICITY":0.00057906,"INCLINATION":97.4385,"RA_OF_ASC_NODE":110.2411,"ARG_OF_PERICENTER":354.2424,"MEAN_ANOMALY":5.8733,"EPHEMERIS_TYPE":0,"CLASSIFICATION_TYPE":"U","NORAD_CAT_ID":43783,"ELEMENT_SET_NO":999,"REV_AT_EPOCH":39720,"BSTAR":0.00011658154,"MEAN_MOTION_DOT":1.38e-5,"MEAN_MOTION_DDOT":0},{"OBJECT_NAME":"SAUDISAT 5A","OBJECT_ID":"2018-102A","EPOCH":"2026-03-15T07:03:32.520960","MEAN_MOTION":15.27019493,"ECCENTRICITY":0.00115251,"INCLINATION":97.3183,"RA_OF_ASC_NODE":137.7035,"ARG_OF_PERICENTER":105.5386,"MEAN_ANOMALY":254.7127,"EPHEMERIS_TYPE":0,"CLASSIFICATION_TYPE":"U","NORAD_CAT_ID":43831,"ELEMENT_SET_NO":999,"REV_AT_EPOCH":40134,"BSTAR":0.00026489724,"MEAN_MOTION_DOT":6.965e-5,"MEAN_MOTION_DDOT":0},{"OBJECT_NAME":"SAUDISAT 5B","OBJECT_ID":"2018-102C","EPOCH":"2026-03-15T07:55:38.030592","MEAN_MOTION":15.2732517,"ECCENTRICITY":0.0012238,"INCLINATION":97.328,"RA_OF_ASC_NODE":140.6408,"ARG_OF_PERICENTER":107.544,"MEAN_ANOMALY":252.7138,"EPHEMERIS_TYPE":0,"CLASSIFICATION_TYPE":"U","NORAD_CAT_ID":43833,"ELEMENT_SET_NO":999,"REV_AT_EPOCH":40146,"BSTAR":0.00026675241,"MEAN_MOTION_DOT":7.081e-5,"MEAN_MOTION_DDOT":0},{"OBJECT_NAME":"GAOFEN-10R","OBJECT_ID":"2019-066A","EPOCH":"2026-03-15T07:09:14.162112","MEAN_MOTION":14.83175823,"ECCENTRICITY":0.00082915,"INCLINATION":98.0405,"RA_OF_ASC_NODE":27.2585,"ARG_OF_PERICENTER":91.2114,"MEAN_ANOMALY":269.0049,"EPHEMERIS_TYPE":0,"CLASSIFICATION_TYPE":"U","NORAD_CAT_ID":44622,"ELEMENT_SET_NO":999,"REV_AT_EPOCH":34846,"BSTAR":0.00021879718,"MEAN_MOTION_DOT":1.732e-5,"MEAN_MOTION_DDOT":0},{"OBJECT_NAME":"CARTOSAT-3","OBJECT_ID":"2019-081A","EPOCH":"2026-03-15T05:39:24.354720","MEAN_MOTION":15.19231672,"ECCENTRICITY":0.00133616,"INCLINATION":97.4421,"RA_OF_ASC_NODE":137.5629,"ARG_OF_PERICENTER":120.1492,"MEAN_ANOMALY":240.1069,"EPHEMERIS_TYPE":0,"CLASSIFICATION_TYPE":"U","NORAD_CAT_ID":44804,"ELEMENT_SET_NO":999,"REV_AT_EPOCH":34920,"BSTAR":0.00020443779,"MEAN_MOTION_DOT":4.247e-5,"MEAN_MOTION_DDOT":0},{"OBJECT_NAME":"GAOFEN-12 01","OBJECT_ID":"2019-082A","EPOCH":"2026-03-15T06:21:47.699424","MEAN_MOTION":14.80372755,"ECCENTRICITY":0.00015099,"INCLINATION":97.8139,"RA_OF_ASC_NODE":83.1167,"ARG_OF_PERICENTER":53.4807,"MEAN_ANOMALY":306.6545,"EPHEMERIS_TYPE":0,"CLASSIFICATION_TYPE":"U","NORAD_CAT_ID":44819,"ELEMENT_SET_NO":999,"REV_AT_EPOCH":34019,"BSTAR":7.8739043e-5,"MEAN_MOTION_DOT":5.5e-6,"MEAN_MOTION_DDOT":0},{"OBJECT_NAME":"CSG-1","OBJECT_ID":"2019-092A","EPOCH":"2026-03-15T06:42:04.040352","MEAN_MOTION":14.82156915,"ECCENTRICITY":0.00013733,"INCLINATION":97.8871,"RA_OF_ASC_NODE":259.2364,"ARG_OF_PERICENTER":85.4314,"MEAN_ANOMALY":274.7056,"EPHEMERIS_TYPE":0,"CLASSIFICATION_TYPE":"U","NORAD_CAT_ID":44873,"ELEMENT_SET_NO":999,"REV_AT_EPOCH":33756,"BSTAR":8.5163074e-5,"MEAN_MOTION_DOT":6.26e-6,"MEAN_MOTION_DDOT":0},{"OBJECT_NAME":"NEMO-HD","OBJECT_ID":"2020-061F","EPOCH":"2026-03-15T07:52:53.052384","MEAN_MOTION":15.42648395,"ECCENTRICITY":0.0002152,"INCLINATION":97.2039,"RA_OF_ASC_NODE":137.311,"ARG_OF_PERICENTER":72.0064,"MEAN_ANOMALY":288.1418,"EPHEMERIS_TYPE":0,"CLASSIFICATION_TYPE":"U","NORAD_CAT_ID":46277,"ELEMENT_SET_NO":999,"REV_AT_EPOCH":30750,"BSTAR":0.00029343276,"MEAN_MOTION_DOT":0.00012702,"MEAN_MOTION_DDOT":0}]
