GAOFEN-1 02             
1 43259U 18031A   26072.67387638  .00000581  00000+0  90900-4 0  9996
2 43259  98.0637 135.4203 0002195 336.3176  23.7932 14.76449151428600
GAOFEN-1 03             
1 43260U 18031B   26074.27849755  .00000876  00000+0  13342-3 0  9990
2 43260  98.0623 136.8908 0003144  36.9054 323.2372 14.76430534428833
GAOFEN-1 04             
1 43262U 18031D   26074.32201434  .00000900  00000+0  13676-3 0  9992
2 43262  98.0639 137.1140 0001811  74.8318 285.3092 14.76448475428837
SENTINEL-3B             
1 43437U 18039A   26074.21559979  .00000116  00000+0  66103-4 0  9995
2 43437  98.6217 143.0687 0001165 125.5320 234.5969 14.26738449410726
GAOFEN-5 01             
1 43461U 18043A   26074.13892882  .00000523  00000+0  11785-3 0  9998
2 43461  98.4474  43.8047 0002394  42.0331 318.1052 14.60530257417963
GAOFEN-6                
1 43484U 18048A   26074.28500531  .00001286  00000+0  19088-3 0  9992
2 43484  97.7865 140.3681 0013483 118.1388 242.1187 14.76608640419538
GAOFEN-11 01            
1 43585U 18063A   26074.28296565  .00025766  00000+0  42186-3 0  9994
2 43585  97.1401 141.5719 0003076 343.6865  16.4289 15.52472830425769
ICESAT-2                
1 43613U 18070A   26074.32355200  .00003536  00000+0  12840-3 0  9996
2 43613  91.9990 265.6847 0004031 109.8559 250.3125 15.28253254418120
HYSIS                   
1 43719U 18096A   26074.28513272  .00001696  00000+0  23843-3 0  9991
2 43719  97.9934 141.7317 0001844  95.3017 264.8405 14.78675358393540
KAZSTSAT                
1 43783U 18099AB  26074.09040402  .00001380  00000+0  11658-3 0  9995
2 43783  97.4385 110.2411 0005790 354.2424   5.8733 14.99637276397209
SAUDISAT 5A             
1 43831U 18102A   26074.29412640  .00006965  00000+0  26490-3 0  9997
2 43831  97.3183 137.7035 0011525 105.5386 254.7127 15.27019493401341
SAUDISAT 5B             
1 43833U 18102C   26074.33030128  .00007081  00000+0  26675-3 0  9996
2 43833  97.3280 140.6408 0012238 107.5440 252.7138 15.27325170401468
GAOFEN-10R              
1 44622U 19066A   26074.29808058  .00001732  00000+0  21880-3 0  9993
2 44622  98.0405  27.2585 0008291  91.2114 269.0049 14.83175823348460
CARTOSAT-3              
1 44804U 19081A   26074.23569855  .00004247  00000+0  20444-3 0  9994
2 44804  97.4421 137.5629 0013361 120.1492 240.1069 15.19231672349202
GAOFEN-12 01            
1 44819U 19082A   26074.26513541  .00000550  00000+0  78739-4 0  9999
2 44819  97.8139  83.1167 0001509  53.4807 306.6545 14.80372755340191
CSG-1                   
1 44873U 19092A   26074.27921343  .00000626  00000+0  85163-4 0  9997
2 44873  97.8871 259.2364 0001373  85.4314 274.7056 14.82156915337565
NEMO-HD                 
1 46277U 20061F   26074.32839181  .00012702  00000+0  29343-3 0  9994
2 46277  97.2039 137.3110 0002152  72.0064 288.1418 15.42648395307507
